SAUDISAT 1C             
1 27607U 02058C   22054.36074558  .00000265  00000+0  57621-4 0  9995
2 27607  64.5547 290.9803 0070238 317.2968  42.2688 14.75928296 31537
SAUDISAT 2              
1 28371U 04025F   22054.43745137  .00000201  00000+0  57856-4 0  9996
2 28371  98.3637  11.0538 0026712  94.8061 265.6183 14.54489177936710
SAUDISAT 3              
1 31118U 07012B   22054.57778633  .00000133  00000+0  30667-4 0  9995
2 31118  97.9558   4.4713 0014742 193.6502 166.4307 14.69259980796385
PISAT                   
1 41784U 16059B   22054.60292870  .00000282  00000+0  62497-4 0  9995
2 41784  97.9333 102.3014 0032247 167.1668 193.0363 14.63758466289031
FLYING LAPTOP           
1 42831U 17042G   22054.55808738  .00000804  00000+0  85282-4 0  9999
2 42831  97.4374 275.5486 0014707  33.8668 326.3529 14.91528175251117
SALSAT                  
1 46495U 20068K   22054.41064942  .00000809  00000+0  63097-4 0  9992
2 46495  97.7192 355.8102 0015309 307.9945  51.9897 15.03915794 77045
